{
"type": "FeatureCollection",
"name": "tranvia_ruta_linea",
"crs": { "type": "name", "properties": { "name": "urn:ogc:def:crs:OGC:1.3:CRS84" } },
"features": [
{ "type": "Feature", "properties": { "begin": null, "end": null }, "geometry": { "type": "LineString", "coordinates": [ [ -66.110037461739324, 18.465401246661365 ], [ -66.110241495977903, 18.465890162733501 ], [ -66.11047237682682, 18.466231384583388 ], [ -66.110794536150891, 18.466368891704196 ], [ -66.111052263610148, 18.466475841610855 ], [ -66.111406638866612, 18.46654714151159 ], [ -66.112050957514754, 18.466486027312776 ], [ -66.112711384129071, 18.466368891704196 ], [ -66.114322180749426, 18.466042948720339 ], [ -66.11536382923056, 18.465798491076097 ], [ -66.117006841783294, 18.465411432427082 ], [ -66.117157182801208, 18.46537578224444 ], [ -66.11713570551295, 18.465273924538941 ], [ -66.116899455341965, 18.464306273321021 ], [ -66.116883347375747, 18.46413311410641 ], [ -66.116883347375747, 18.46413311410641 ], [ -66.116706159747523, 18.464112742422611 ], [ -66.115683303893604, 18.464363568610906 ], [ -66.11531818999299, 18.464460333945951 ], [ -66.115189326263362, 18.46451126304774 ], [ -66.115189326263362, 18.46451126304774 ], [ -66.115130263720616, 18.464399219003852 ], [ -66.115098047788209, 18.46420314175101 ], [ -66.115065831855787, 18.464050354125945 ], [ -66.114942337448241, 18.464060539971847 ], [ -66.114684609988984, 18.464126747955483 ], [ -66.113669808118175, 18.464473066222816 ], [ -66.11270869946803, 18.464849941190138 ], [ -66.112139551328838, 18.46504347125709 ], [ -66.111505971324846, 18.465109678861463 ], [ -66.110797220811889, 18.465247186881228 ], [ -66.110037461739324, 18.465401246661365 ], [ -66.109905913348641, 18.465652070966151 ], [ -66.109610600634909, 18.465702999714217 ], [ -66.108713923849578, 18.465759021319624 ], [ -66.107436025197458, 18.465820135777399 ], [ -66.106131279934985, 18.46591180742324 ], [ -66.10510573942004, 18.465937271760616 ], [ -66.103548636020392, 18.465865971606444 ], [ -66.102936533304643, 18.465815042906748 ], [ -66.101580779482532, 18.465639338776768 ], [ -66.100211602355259, 18.46543562361822 ], [ -66.098514896581833, 18.465247186881225 ], [ -66.096528247416757, 18.464961984939713 ], [ -66.095223502154283, 18.464768454780852 ], [ -66.0937200919753, 18.46449853077371 ], [ -66.09271602874864, 18.464111469192297 ], [ -66.090868981957328, 18.4633831799025 ], [ -66.089325301862843, 18.462787304548204 ], [ -66.088396409145119, 18.462420610994076 ], [ -66.088197744228609, 18.462237263923186 ], [ -66.088009817956234, 18.462002986825322 ], [ -66.087633965411499, 18.461605733624115 ], [ -66.087403084562567, 18.461356176655656 ], [ -66.087220527612246, 18.461147363403192 ], [ -66.087064817272292, 18.460846875594051 ], [ -66.086984277441275, 18.460561666339398 ], [ -66.086866152355796, 18.460113479410236 ], [ -66.086785612524778, 18.459726407938675 ], [ -66.086538623709657, 18.459700942679682 ], [ -66.086237941673858, 18.459812989791001 ], [ -66.086012430147008, 18.459904664645858 ], [ -66.084047258270189, 18.460322293920573 ], [ -66.082116986986819, 18.460711910559404 ], [ -66.081751873086219, 18.460717003581507 ], [ -66.081118293082213, 18.460640608234105 ], [ -66.080076644601064, 18.460457259261602 ], [ -66.079346416799851, 18.460243351879463 ], [ -66.078771899338591, 18.459907211168904 ], [ -66.077596017805746, 18.459275672296069 ], [ -66.075824141523384, 18.458241777028789 ], [ -66.076436244239105, 18.458585560628944 ], [ -66.075072436433899, 18.457526195623345 ], [ -66.074664367956743, 18.4570627213776 ], [ -66.074594566769846, 18.456915020530865 ], [ -66.074318046683373, 18.456443904911989 ], [ -66.074025418630669, 18.455934589275056 ], [ -66.073641512102839, 18.455723222842082 ], [ -66.073075048624673, 18.455445644842062 ], [ -66.072452207264817, 18.455185892545646 ], [ -66.071539422513297, 18.454732598381185 ], [ -66.070642745727966, 18.454370980829996 ], [ -66.069611835890953, 18.454192718376603 ], [ -66.068892346733861, 18.454157065863718 ], [ -66.067308396723874, 18.454421912925543 ], [ -66.066304333497214, 18.454605268344405 ], [ -66.065590213662205, 18.454747877979255 ], [ -66.063238450596515, 18.454457565383436 ], [ -66.062245126013977, 18.454345514776559 ], [ -66.06240083635393, 18.454029735400113 ], [ -66.062508222795302, 18.453382895186724 ], [ -66.062674671779391, 18.452364244241071 ], [ -66.062897498645199, 18.451098562022377 ], [ -66.063149856782417, 18.449478882638648 ], [ -66.063316305766534, 18.448488222153571 ], [ -66.063364629665145, 18.448325233762869 ], [ -66.063659942378862, 18.447912668707644 ], [ -66.064288153060787, 18.447174123850012 ], [ -66.064910994420657, 18.446466136488077 ], [ -66.065775455273581, 18.445447444516386 ], [ -66.066484205786523, 18.444596832091921 ], [ -66.063877399922561, 18.442600168417847 ], [ -66.062331035167034, 18.441286025072475 ], [ -66.060763193123236, 18.4393708214245 ], [ -66.059882624304123, 18.438372462123123 ], [ -66.059700067353845, 18.437689907017766 ], [ -66.059764499218659, 18.436793412611671 ], [ -66.060269215493022, 18.435132848120428 ], [ -66.060333647357837, 18.434429904944537 ], [ -66.060054442610323, 18.433625082416285 ], [ -66.059431601250452, 18.432270119521416 ], [ -66.059130919214653, 18.431719981162448 ], [ -66.058551032431353, 18.428785880183923 ], [ -66.05750938395019, 18.424073894512734 ], [ -66.056736201572434, 18.420813634272168 ], [ -66.055769723600235, 18.416941994983876 ], [ -66.05474955240733, 18.412927624363622 ], [ -66.054411285117055, 18.411731700799617 ], [ -66.054446185710518, 18.40947101321591 ], [ -66.053928046130963, 18.407499414680743 ], [ -66.053656895366544, 18.406289443159103 ], [ -66.053502527357054, 18.405551993187427 ], [ -66.053330709050897, 18.404708825446441 ], [ -66.053295808457435, 18.404181525093094 ], [ -66.053279700491245, 18.403014835480878 ], [ -66.053295808457435, 18.404181525093094 ], [ -66.053330709050897, 18.404708825446441 ], [ -66.053502527357054, 18.405551993187427 ], [ -66.053656895366544, 18.406289443159103 ], [ -66.053928046130963, 18.407499414680743 ], [ -66.054446185710518, 18.40947101321591 ], [ -66.054411285117055, 18.411731700799617 ], [ -66.05474955240733, 18.412927624363622 ], [ -66.055769723600235, 18.416941994983876 ], [ -66.056736201572434, 18.420813634272168 ], [ -66.05750938395019, 18.424073894512734 ], [ -66.058551032431353, 18.428785880183923 ], [ -66.059130919214653, 18.431719981162448 ], [ -66.059431601250452, 18.432270119521416 ], [ -66.060054442610323, 18.433625082416285 ], [ -66.060333647357837, 18.434429904944537 ], [ -66.060269215493022, 18.435132848120428 ], [ -66.059764499218659, 18.436793412611671 ], [ -66.059700067353845, 18.437689907017766 ], [ -66.059882624304123, 18.438372462123123 ], [ -66.060763193123236, 18.4393708214245 ], [ -66.062331035167034, 18.441286025072475 ], [ -66.063877399922561, 18.442600168417847 ], [ -66.066484205786523, 18.444596832091921 ], [ -66.067317793037503, 18.445252618988668 ], [ -66.068982282878522, 18.446536171339215 ], [ -66.071387739164891, 18.44836980091635 ], [ -66.074018706978109, 18.450427517464451 ], [ -66.076628197503055, 18.452108307241119 ], [ -66.07958132464033, 18.45391131798425 ], [ -66.081235075837199, 18.454919773363862 ], [ -66.083415020596746, 18.455897663832669 ], [ -66.085240590099772, 18.456671823170161 ], [ -66.085884908747929, 18.45707927405082 ], [ -66.086207068071985, 18.457456165254417 ], [ -66.086303715869207, 18.457965476377051 ], [ -66.086400363666428, 18.458403482733925 ], [ -66.086507750107785, 18.458770184870822 ], [ -66.086647352481563, 18.459208189174301 ], [ -66.086785612524778, 18.459726407938675 ] ] } }
]
}
