{
"type": "FeatureCollection",
"name": "tranvia_paradas",
"crs": { "type": "name", "properties": { "name": "urn:ogc:def:crs:OGC:1.3:CRS84" } },
"features": [
{ "type": "Feature", "properties": { "id": null, "Parada": null, "Nombre": null }, "geometry": { "type": "Point", "coordinates": [ -66.111635722271814, 18.465096476624261 ] } },
{ "type": "Feature", "properties": { "id": null, "Parada": 1, "Nombre": null }, "geometry": null },
{ "type": "Feature", "properties": { "id": null, "Parada": 1, "Nombre": null }, "geometry": { "type": "Point", "coordinates": [ -66.109140027653382, 18.465731460855377 ] } },
{ "type": "Feature", "properties": { "id": null, "Parada": 2, "Nombre": null }, "geometry": { "type": "Point", "coordinates": [ -66.107278851079116, 18.465828147726345 ] } },
{ "type": "Feature", "properties": { "id": null, "Parada": 3, "Nombre": null }, "geometry": { "type": "Point", "coordinates": [ -66.103925583562017, 18.465882737761444 ] } },
{ "type": "Feature", "properties": { "id": null, "Parada": 4, "Nombre": null }, "geometry": { "type": "Point", "coordinates": [ -66.101351719527315, 18.465604898745326 ] } },
{ "type": "Feature", "properties": { "id": null, "Parada": 5, "Nombre": null }, "geometry": { "type": "Point", "coordinates": [ -66.100071516379089, 18.465419672484643 ] } },
{ "type": "Feature", "properties": { "id": null, "Parada": 6, "Nombre": null }, "geometry": { "type": "Point", "coordinates": [ -66.098855165904112, 18.465283875978805 ] } },
{ "type": "Feature", "properties": { "id": null, "Parada": 6, "Nombre": null }, "geometry": { "type": "Point", "coordinates": [ -66.098231528584321, 18.465206200329156 ] } },
{ "type": "Feature", "properties": { "id": null, "Parada": 7, "Nombre": null }, "geometry": { "type": "Point", "coordinates": [ -66.096804292486723, 18.46500155469921 ] } },
{ "type": "Feature", "properties": { "id": null, "Parada": 7, "Nombre": null }, "geometry": { "type": "Point", "coordinates": [ -66.095557984227383, 18.464817244416498 ] } },
{ "type": "Feature", "properties": { "id": null, "Parada": 8, "Nombre": null }, "geometry": { "type": "Point", "coordinates": [ -66.093883497980443, 18.464527725119915 ] } },
{ "type": "Feature", "properties": { "id": null, "Parada": 8, "Nombre": null }, "geometry": null },
{ "type": "Feature", "properties": { "id": null, "Parada": 8, "Nombre": "Porto Rico & American Tobacco Co." }, "geometry": { "type": "Point", "coordinates": [ -66.091849661487316, 18.463769703709744 ] } },
{ "type": "Feature", "properties": { "id": null, "Parada": 9, "Nombre": null }, "geometry": { "type": "Point", "coordinates": [ -66.088009817956234, 18.462002986825322 ] } },
{ "type": "Feature", "properties": { "id": null, "Parada": 10, "Nombre": "Desvío Puente Dos Hermanos" }, "geometry": { "type": "Point", "coordinates": [ -66.086785612524778, 18.459726407938675 ] } },
{ "type": "Feature", "properties": { "id": null, "Parada": 10, "Nombre": "Calle Olimpo" }, "geometry": { "type": "Point", "coordinates": [ -66.085956031114463, 18.457163015626524 ] } },
{ "type": "Feature", "properties": { "id": null, "Parada": 11, "Nombre": "Calle Miramar" }, "geometry": { "type": "Point", "coordinates": [ -66.084895446802108, 18.456525012016186 ] } },
{ "type": "Feature", "properties": { "id": null, "Parada": 12, "Nombre": "Calle Cuevilla" }, "geometry": { "type": "Point", "coordinates": [ -66.082854165602669, 18.455646089579165 ] } },
{ "type": "Feature", "properties": { "id": null, "Parada": 13, "Nombre": null }, "geometry": { "type": "Point", "coordinates": [ -66.081354916288532, 18.454973314327273 ] } },
{ "type": "Feature", "properties": { "id": null, "Parada": 14, "Nombre": "Calle Hoare" }, "geometry": { "type": "Point", "coordinates": [ -66.080056674044414, 18.454199768914265 ] } },
{ "type": "Feature", "properties": { "id": null, "Parada": 15, "Nombre": "Calle Cerra" }, "geometry": { "type": "Point", "coordinates": [ -66.07890961660506, 18.453500641655765 ] } },
{ "type": "Feature", "properties": { "id": null, "Parada": 16, "Nombre": "Calle de la Planta (Desvío hacia la planta eléctrica)" }, "geometry": { "type": "Point", "coordinates": [ -66.077719608937088, 18.45277380703557 ] } },
{ "type": "Feature", "properties": { "id": null, "Parada": 17, "Nombre": "Calle Barcelona" }, "geometry": { "type": "Point", "coordinates": [ -66.076276481255036, 18.45188128467975 ] } },
{ "type": "Feature", "properties": { "id": null, "Parada": 17, "Nombre": "Calle Condado" }, "geometry": { "type": "Point", "coordinates": [ -66.075171801374623, 18.451168567209194 ] } },
{ "type": "Feature", "properties": { "id": null, "Parada": 18, "Nombre": "Escuela Labra" }, "geometry": { "type": "Point", "coordinates": [ -66.074123815796014, 18.450493329864646 ] } },
{ "type": "Feature", "properties": { "id": null, "Parada": 19, "Nombre": "Calle Villamil" }, "geometry": { "type": "Point", "coordinates": [ -66.073276264617661, 18.449845794856984 ] } },
{ "type": "Feature", "properties": { "id": null, "Parada": 19, "Nombre": "Asilo de Caridad para Niños" }, "geometry": { "type": "Point", "coordinates": [ -66.072264929900783, 18.449055385980763 ] } },
{ "type": "Feature", "properties": { "id": null, "Parada": 20, "Nombre": "Calle del Hipódromo" }, "geometry": { "type": "Point", "coordinates": [ -66.071200909570138, 18.448227489896539 ] } },
{ "type": "Feature", "properties": { "id": null, "Parada": 21, "Nombre": "Escuela Superior Central" }, "geometry": { "type": "Point", "coordinates": [ -66.069627785862764, 18.447027196459238 ] } },
{ "type": "Feature", "properties": { "id": null, "Parada": 22, "Nombre": null }, "geometry": { "type": "Point", "coordinates": [ -66.068471565707981, 18.446142249693917 ] } },
{ "type": "Feature", "properties": { "id": null, "Parada": 23, "Nombre": "Calle del Parque" }, "geometry": { "type": "Point", "coordinates": [ -66.066484205786523, 18.444596832091921 ] } },
{ "type": "Feature", "properties": { "id": null, "Parada": 24, "Nombre": "Calle Bolivar" }, "geometry": { "type": "Point", "coordinates": [ -66.065632269260547, 18.443943715806498 ] } },
{ "type": "Feature", "properties": { "id": null, "Parada": 25, "Nombre": "Calle San Jorge" }, "geometry": { "type": "Point", "coordinates": [ -66.064601463773386, 18.44315490954008 ] } },
{ "type": "Feature", "properties": { "id": null, "Parada": 26, "Nombre": "Calle Pedro de Castro" }, "geometry": { "type": "Point", "coordinates": [ -66.061463233734671, 18.440226190126921 ] } },
{ "type": "Feature", "properties": { "id": null, "Parada": 27, "Nombre": null }, "geometry": { "type": "Point", "coordinates": [ -66.060924924202496, 18.439567751065375 ] } },
{ "type": "Feature", "properties": { "id": null, "Parada": 27, "Nombre": "Martín Peña" }, "geometry": { "type": "Point", "coordinates": [ -66.059983798170563, 18.438486790611218 ] } },
{ "type": "Feature", "properties": { "id": null, "Parada": 28, "Nombre": "Calle Chardón" }, "geometry": { "type": "Point", "coordinates": [ -66.057990050718089, 18.426256221334178 ] } },
{ "type": "Feature", "properties": { "id": null, "Parada": 29, "Nombre": "Calle México" }, "geometry": { "type": "Point", "coordinates": [ -66.057620315195663, 18.424585137941527 ] } },
{ "type": "Feature", "properties": { "id": null, "Parada": 31, "Nombre": "Calle Eleonor Roosevelt" }, "geometry": { "type": "Point", "coordinates": [ -66.056852600465064, 18.421325747814645 ] } },
{ "type": "Feature", "properties": { "id": null, "Parada": 32, "Nombre": null }, "geometry": { "type": "Point", "coordinates": [ -66.056552190353074, 18.420078491009303 ] } },
{ "type": "Feature", "properties": { "id": null, "Parada": 33, "Nombre": "Calle Domenech" }, "geometry": { "type": "Point", "coordinates": [ -66.0558640714641, 18.417322070117475 ] } },
{ "type": "Feature", "properties": { "id": null, "Parada": 35, "Nombre": "Calle Vela" }, "geometry": { "type": "Point", "coordinates": [ -66.054961557324305, 18.413766550824175 ] } },
{ "type": "Feature", "properties": { "id": null, "Parada": 36, "Nombre": "Avenida Coll y Toste" }, "geometry": { "type": "Point", "coordinates": [ -66.054411285117055, 18.411731700799617 ] } },
{ "type": "Feature", "properties": { "id": null, "Parada": 37, "Nombre": "Hospital Auxilio Mutuo" }, "geometry": { "type": "Point", "coordinates": [ -66.054446185710518, 18.40947101321591 ] } },
{ "type": "Feature", "properties": { "id": null, "Parada": 38, "Nombre": "Calle Tanamá" }, "geometry": { "type": "Point", "coordinates": [ -66.053928046130963, 18.407499414680743 ] } },
{ "type": "Feature", "properties": { "id": null, "Parada": 39, "Nombre": "Calle Mariana Bracetti" }, "geometry": { "type": "Point", "coordinates": [ -66.053656895366544, 18.406289443159103 ] } },
{ "type": "Feature", "properties": { "id": null, "Parada": 40, "Nombre": "Avenida Universidad" }, "geometry": { "type": "Point", "coordinates": [ -66.053279700491245, 18.403014835480878 ] } }
]
}
